H1 CPF  1  DGF 2022 02 27 11  5581 larets     NONE      
H2   304206 5557    27944 2022 02 27 00 00 00 2022 03 06 00 00 00    30 1 1  0 0 0
H5  0.0650
H9
10 0 59638  75600.000000  0       -716760.377      -5431557.379       4456355.803
10 0 59638  75630.000000  0       -787868.803      -5560271.354       4282310.574
10 0 59638  75660.000000  0       -858729.734      -5683045.205       4103897.653
10 0 59638  75690.000000  0       -929245.009      -5799754.928       3921298.283
10 0 59638  75720.000000  0       -999316.268      -5910283.068       3734698.052
10 0 59638  75750.000000  0      -1068845.080      -6014518.845       3544286.708
10 0 59638  75780.000000  0      -1137733.074      -6112358.277       3350257.969
10 0 59638  75810.000000  0      -1205882.073      -6203704.288       3152809.324
10 0 59638  75840.000000  0      -1273194.222      -6288466.819       2952141.835
10 0 59638  75870.000000  0      -1339572.120      -6366562.921       2748459.932
10 0 59638  75900.000000  0      -1404918.954      -6437916.852       2541971.208
10 0 59638  75930.000000  0      -1469138.634      -6502460.157       2332886.203
10 0 59638  75960.000000  0      -1532135.928      -6560131.746       2121418.184
10 0 59638  75990.000000  0      -1593816.595      -6610877.956       1907782.924
10 0 59638  76020.000000  0      -1654087.515      -6654652.605       1692198.473
10 0 59638  76050.000000  0      -1712856.820      -6691417.040       1474884.934
10 0 59638  76080.000000  0      -1770034.016      -6721140.175       1256064.229
10 0 59638  76110.000000  0      -1825530.117      -6743798.522       1035959.872
10 0 59638  76140.000000  0      -1879257.770      -6759376.213        814796.731
10 0 59638  76170.000000  0      -1931131.373      -6767865.009        592800.791
10 0 59638  76200.000000  0      -1981067.206      -6769264.307        370198.920
10 0 59638  76230.000000  0      -2028983.546      -6763581.132        147218.624
10 0 59638  76260.000000  0      -2074800.783      -6750830.121        -75912.186
10 0 59638  76290.000000  0      -2118441.541      -6731033.502       -298965.438
10 0 59638  76320.000000  0      -2159830.786      -6704221.059       -521713.138
10 0 59638  76350.000000  0      -2198895.941      -6670430.092       -743927.610
10 0 59638  76380.000000  0      -2235566.989      -6629705.368       -965381.736
10 0 59638  76410.000000  0      -2269776.580      -6582099.061      -1185849.195
10 0 59638  76440.000000  0      -2301460.133      -6527670.684      -1405104.701
10 0 59638  76470.000000  0      -2330555.933      -6466487.013      -1622924.242
10 0 59638  76500.000000  0      -2357005.224      -6398622.007      -1839085.312
10 0 59638  76530.000000  0      -2380752.303      -6324156.707      -2053367.149
10 0 59638  76560.000000  0      -2401744.606      -6243179.145      -2265550.962
10 0 59638  76590.000000  0      -2419932.790      -6155784.225      -2475420.168
10 0 59638  76620.000000  0      -2435270.811      -6062073.611      -2682760.609
10 0 59638  76650.000000  0      -2447716.001      -5962155.600      -2887360.784
10 0 59638  76680.000000  0      -2457229.136      -5856144.987      -3089012.061
10 0 59638  76710.000000  0      -2463774.503      -5744162.930      -3287508.898
10 0 59638  76740.000000  0      -2467319.961      -5626336.798      -3482649.051
10 0 59638  76770.000000  0      -2467836.998      -5502800.019      -3674233.782
10 0 59638  76800.000000  0      -2465300.781      -5373691.922      -3862068.062
10 0 59638  76830.000000  0      -2459690.206      -5239157.569      -4045960.768
10 0 59638  76860.000000  0      -2450987.940      -5099347.587      -4225724.875
10 0 59638  76890.000000  0      -2439180.461      -4954417.989      -4401177.647
10 0 59638  76920.000000  0      -2424258.087      -4804529.991      -4572140.817
10 0 59638  76950.000000  0      -2406215.010      -4649849.830      -4738440.770
10 0 59638  76980.000000  0      -2385049.318      -4490548.566      -4899908.710
10 0 59638  77010.000000  0      -2360763.015      -4326801.890      -5056380.829
10 0 59638  77040.000000  0      -2333362.035      -4158789.923      -5207698.472
10 0 59638  77070.000000  0      -2302856.252      -3986697.013      -5353708.290
10 0 59638  77100.000000  0      -2269259.486      -3810711.522      -5494262.392
10 0 59638  77130.000000  0      -2232589.504      -3631025.619      -5629218.488
10 0 59638  77160.000000  0      -2192868.014      -3447835.062      -5758440.033
10 0 59638  77190.000000  0      -2150120.655      -3261338.980      -5881796.351
10 0 59638  77220.000000  0      -2104376.985      -3071739.651      -5999162.768
10 0 59638  77250.000000  0      -2055670.457      -2879242.279      -6110420.729
10 0 59638  77280.000000  0      -2004038.398      -2684054.765      -6215457.910
10 0 59638  77310.000000  0      -1949521.978      -2486387.482      -6314168.322
10 0 59638  77340.000000  0      -1892166.177      -2286453.044      -6406452.412
10 0 59638  77370.000000  0      -1832019.749      -2084466.077      -6492217.155
10 0 59638  77400.000000  0      -1769135.179      -1880642.987      -6571376.140
10 0 59638  77430.000000  0      -1703568.637      -1675201.727      -6643849.649
10 0 59638  77460.000000  0      -1635379.927      -1468361.567      -6709564.734
10 0 59638  77490.000000  0      -1564632.433      -1260342.854      -6768455.277
10 0 59638  77520.000000  0      -1491393.057      -1051366.785      -6820462.058
10 0 59638  77550.000000  0      -1415732.162       -841655.167      -6865532.801
10 0 59638  77580.000000  0      -1337723.499       -631430.189      -6903622.226
10 0 59638  77610.000000  0      -1257444.138       -420914.186      -6934692.087
10 0 59638  77640.000000  0      -1174974.388       -210329.408      -6958711.209
10 0 59638  77670.000000  0      -1090397.719           102.209      -6975655.515
10 0 59638  77700.000000  0      -1003800.676        210159.275      -6985508.048
10 0 59638  77730.000000  0       -915272.793        419621.174      -6988258.990
10 0 59638  77760.000000  0       -824906.501        628268.299      -6983905.669
10 0 59638  77790.000000  0       -732797.028        835882.276      -6972452.559
10 0 59638  77820.000000  0       -639042.307       1042246.193      -6953911.274
10 0 59638  77850.000000  0       -543742.868       1247144.815      -6928300.552
10 0 59638  77880.000000  0       -447001.740       1450364.809      -6895646.247
10 0 59638  77910.000000  0       -348924.339       1651694.962      -6855981.303
10 0 59638  77940.000000  0       -249618.356       1850926.400      -6809345.725
10 0 59638  77970.000000  0       -149193.640       2047852.806      -6755786.548
10 0 59638  78000.000000  0        -47762.078       2242270.633      -6695357.789
10 0 59638  78030.000000  0         54562.531       2433979.311      -6628120.402
10 0 59638  78060.000000  0        157664.597       2622781.459      -6554142.218
10 0 59638  78090.000000  0        261426.872       2808483.086      -6473497.887
10 0 59638  78120.000000  0        365730.585       2990893.798      -6386268.802
10 0 59638  78150.000000  0        470455.569       3169826.990      -6292543.019
10 0 59638  78180.000000  0        575480.400       3345100.037      -6192415.175
10 0 59638  78210.000000  0        680682.533       3516534.478      -6085986.397
10 0 59638  78240.000000  0        785938.443       3683956.204      -5973364.215
10 0 59638  78270.000000  0        891123.768       3847195.638      -5854662.454
10 0 59638  78300.000000  0        996113.453       4006087.911      -5730001.130
10 0 59638  78330.000000  0       1100781.897       4160473.031      -5599506.336
10 0 59638  78360.000000  0       1205003.100       4310196.052      -5463310.120
10 0 59638  78390.000000  0       1308650.814       4455107.234      -5321550.361
10 0 59638  78420.000000  0       1411598.697       4595062.205      -5174370.635
10 0 59638  78450.000000  0       1513720.459       4729922.104      -5021920.073
10 0 59638  78480.000000  0       1614890.020       4859553.734      -4864353.217
10 0 59638  78510.000000  0       1714981.664       4983829.695      -4701829.862
10 0 59638  78540.000000  0       1813870.189       5102628.516      -4534514.903
10 0 59638  78570.000000  0       1911431.065       5215834.781      -4362578.170
10 0 59638  78600.000000  0       2007540.587       5323339.246      -4186194.259
10 0 59638  78630.000000  0       2102076.028       5425038.954      -4005542.363
10 0 59638  78660.000000  0       2194915.797       5520837.342      -3820806.089
10 0 59638  78690.000000  0       2285939.588       5610644.338      -3632173.276
10 0 59638  78720.000000  0       2375028.540       5694376.458      -3439835.806
10 0 59638  78750.000000  0       2462065.384       5771956.886      -3243989.408
10 0 59638  78780.000000  0       2546934.601       5843315.557      -3044833.459
10 0 59638  78810.000000  0       2629522.566       5908389.223      -2842570.783
10 0 59638  78840.000000  0       2709717.703       5967121.518      -2637407.439
10 0 59638  78870.000000  0       2787410.629       6019463.007      -2429552.513
10 0 59638  78900.000000  0       2862494.301       6065371.242      -2219217.900
10 0 59638  78930.000000  0       2934864.156       6104810.790      -2006618.085
10 0 59638  78960.000000  0       3004418.255       6137753.274      -1791969.920
10 0 59638  78990.000000  0       3071057.419       6164177.383      -1575492.398
10 0 59638  79020.000000  0       3134685.363       6184068.897      -1357406.422
10 0 59638  79050.000000  0       3195208.827       6197420.679      -1137934.577
10 0 59638  79080.000000  0       3252537.707       6204232.683       -917300.895
10 0 59638  79110.000000  0       3306585.175       6204511.935       -695730.623
10 0 59638  79140.000000  0       3357267.806       6198272.515       -473449.985
10 0 59638  79170.000000  0       3404505.689       6185535.528       -250685.943
99
